{
  "norad_id": 63729,
  "name": "KUIPER-00013",
  "history": [
    {
      "epoch": "2026-04-09T20:17:48.721056Z",
      "apogee_km": 630.5654274324233,
      "perigee_km": 628.458928089588,
      "latitude_deg": 3.286079073000425e-05,
      "longitude_deg": -172.21102594764193,
      "height_km": 631.0249532096923,
      "semi_major_axis_km": 7007.649177761005,
      "eccentricity": 0.0001503,
      "inclination_deg": 51.9039,
      "raan_deg": 330.33,
      "arg_perigee_deg": 136.7339,
      "mean_anomaly_deg": 223.3742,
      "mean_motion_rev_day": 14.79940429
    },
    {
      "epoch": "2026-04-11T20:55:05.439072Z",
      "apogee_km": 630.7207515562586,
      "perigee_km": 628.3675722220951,
      "latitude_deg": -2.788967457321067e-05,
      "longitude_deg": 167.5150578189322,
      "height_km": 630.9251577914549,
      "semi_major_axis_km": 7007.681161889176,
      "eccentricity": 0.0001679,
      "inclination_deg": 51.9016,
      "raan_deg": 321.3726,
      "arg_perigee_deg": 122.7164,
      "mean_anomaly_deg": 237.396,
      "mean_motion_rev_day": 14.79930297
    },
    {
      "epoch": "2026-04-13T06:57:12.531168Z",
      "apogee_km": 630.5930915886547,
      "perigee_km": 628.5122282210423,
      "latitude_deg": -5.318301208871368e-06,
      "longitude_deg": 9.316044240143874,
      "height_km": 631.2280855432922,
      "semi_major_axis_km": 7007.689659904848,
      "eccentricity": 0.00014847,
      "inclination_deg": 51.9026,
      "raan_deg": 315.1009,
      "arg_perigee_deg": 153.2736,
      "mean_anomaly_deg": 206.8303,
      "mean_motion_rev_day": 14.79927605
    },
    {
      "epoch": "2026-04-14T20:13:49.284192Z",
      "apogee_km": 630.5011241257935,
      "perigee_km": 628.6580946575241,
      "latitude_deg": 6.0587583680958236e-05,
      "longitude_deg": 161.764052829254,
      "height_km": 631.0877680487118,
      "semi_major_axis_km": 7007.7166093916585,
      "eccentricity": 0.0001315,
      "inclination_deg": 51.9029,
      "raan_deg": 308.2329,
      "arg_perigee_deg": 145.7899,
      "mean_anomaly_deg": 214.3149,
      "mean_motion_rev_day": 14.79919068
    },
    {
      "epoch": "2026-04-15T20:32:28.317120Z",
      "apogee_km": 630.4944803146745,
      "perigee_km": 628.6402417407471,
      "latitude_deg": -1.7136157446138189e-06,
      "longitude_deg": 151.6229581758152,
      "height_km": 631.0915461683231,
      "semi_major_axis_km": 7007.704361027711,
      "eccentricity": 0.0001323,
      "inclination_deg": 51.9045,
      "raan_deg": 303.7529,
      "arg_perigee_deg": 147.0397,
      "mean_anomaly_deg": 213.0648,
      "mean_motion_rev_day": 14.79922948
    },
    {
      "epoch": "2026-04-16T19:13:52.540320Z",
      "apogee_km": 630.481942188967,
      "perigee_km": 628.6178974682925,
      "latitude_deg": -3.9517888581571226e-05,
      "longitude_deg": 166.16045276615054,
      "height_km": 631.0932165374785,
      "semi_major_axis_km": 7007.6869198286295,
      "eccentricity": 0.000133,
      "inclination_deg": 51.9029,
      "raan_deg": 299.5732,
      "arg_perigee_deg": 148.7899,
      "mean_anomaly_deg": 211.3142,
      "mean_motion_rev_day": 14.79928473
    },
    {
      "epoch": "2026-04-17T19:32:31.210368Z",
      "apogee_km": 630.4205448087614,
      "perigee_km": 628.6579740759862,
      "latitude_deg": 3.089651043456924e-05,
      "longitude_deg": 156.02187710697126,
      "height_km": 631.0921945212093,
      "semi_major_axis_km": 7007.6762594423735,
      "eccentricity": 0.00012576,
      "inclination_deg": 51.903,
      "raan_deg": 295.0941,
      "arg_perigee_deg": 156.2322,
      "mean_anomaly_deg": 203.8699,
      "mean_motion_rev_day": 14.7993185
    },
    {
      "epoch": "2026-04-18T05:15:58.619808Z",
      "apogee_km": 630.4126730958478,
      "perigee_km": 628.6538880088347,
      "latitude_deg": -2.1415376449289012e-05,
      "longitude_deg": 7.966468523650127,
      "height_km": 631.0822940634667,
      "semi_major_axis_km": 7007.670280552341,
      "eccentricity": 0.00012549,
      "inclination_deg": 51.9026,
      "raan_deg": 293.3023,
      "arg_perigee_deg": 155.8874,
      "mean_anomaly_deg": 204.2147,
      "mean_motion_rev_day": 14.79933744
    },
    {
      "epoch": "2026-04-19T18:32:33.039168Z",
      "apogee_km": 630.3962395372073,
      "perigee_km": 628.6219035518934,
      "latitude_deg": -6.166211612219714e-05,
      "longitude_deg": 160.42384189121637,
      "height_km": 631.080670558084,
      "semi_major_axis_km": 7007.64607154455,
      "eccentricity": 0.0001266,
      "inclination_deg": 51.9021,
      "raan_deg": 286.434,
      "arg_perigee_deg": 158.464,
      "mean_anomaly_deg": 201.6375,
      "mean_motion_rev_day": 14.79941413
    },
    {
      "epoch": "2026-04-20T04:16:00.235200Z",
      "apogee_km": 630.3921508935537,
      "perigee_km": 628.6157139171892,
      "latitude_deg": 2.0436257515149282e-05,
      "longitude_deg": 12.36962886106378,
      "height_km": 631.0790680106485,
      "semi_major_axis_km": 7007.640932405371,
      "eccentricity": 0.00012675,
      "inclination_deg": 51.9016,
      "raan_deg": 284.6424,
      "arg_perigee_deg": 158.9278,
      "mean_anomaly_deg": 201.1737,
      "mean_motion_rev_day": 14.79943041
    }
  ]
}